GOES 1 (SMS-C)          
1 08366U 75100A   24184.61593031 -.00000059  00000+0  00000+0 0  9996
2 08366   6.4268 286.3387 0002081 278.7530 188.4414  1.00316528177901
GOES 2                  
1 10061U 77048A   24184.44440854  .00000095  00000+0  00000+0 0  9998
2 10061   8.1195 299.5711 0010589  45.7293 330.7044  0.99394942 39171
GOES 3                  
1 10953U 78062A   24184.10466133 -.00000148  00000+0  00000+0 0  9996
2 10953   8.5212 304.7083 0002401 181.9629 190.7229  0.99364437121432
GOES 4                  
1 11964U 80074A   24183.87896552  .00000048  00000+0  00000+0 0  9998
2 11964   9.5441 308.5374 0032570  95.7077 269.3111  0.99226818120346
GOES 5                  
1 12472U 81049A   24184.51354073  .00000085  00000+0  00000+0 0  9996
2 12472  10.6422 320.5877 0001597 211.6764 155.9328  1.00303000115685
GOES 6                  
1 14050U 83041A   24184.54071404  .00000002  00000+0  00000+0 0  9990
2 14050  11.3357 326.0698 0004122 175.7603 211.4308  1.00316468208855
GOES 7                  
1 17561U 87022A   24184.24805039 -.00000285  00000+0  00000+0 0  9993
2 17561  13.5799 342.7433 0003915  94.1648 259.6211  0.99906166119814
GOES 8                  
1 23051U 94022A   24184.45546041 -.00000142  00000+0  00000+0 0  9992
2 23051  13.8146  18.9306 0006426  67.7074 288.5860  0.98904675117051
GOES 9                  
1 23581U 95025A   24184.52354833 -.00000057  00000+0  00000+0 0  9993
2 23581  13.3226  19.5565 0007856 128.5050 234.4106  0.98798540105709
GOES 10                 
1 24786U 97019A   24184.61029654 -.00000091  00000+0  00000+0 0  9994
2 24786  12.2797  26.0055 0028502 215.8520 355.2356  0.99121669 98981
GOES 11                 
1 26352U 00022A   24184.61558413 -.00000123  00000+0  00000+0 0  9999
2 26352  10.2769  53.0901 0001161 173.1117  20.4695  0.99040952 45398
GOES 12                 
1 26871U 01031A   24184.07271588 -.00000073  00000+0  00000+0 0  9995
2 26871  10.8726  42.9956 0004846 319.1341 218.3376  0.99135500 83675
EWS-G1 (GOES 13)        
1 29155U 06018A   24184.52132751 -.00000225  00000+0  00000+0 0  9990
2 29155   2.6658  85.1279 0079144 255.5620 296.1610  0.99075487 36185
GOES 14                 
1 35491U 09033A   24184.51928424 -.00000064  00000+0  00000+0 0  9990
2 35491   0.3753 102.6321 0003634   3.3034 253.5201  1.00272033 54944
EWS-G2 (GOES 15)        
1 36411U 10008A   24184.55304045  .00000041  00000+0  00000+0 0  9992
2 36411   0.3429  89.1623 0002778 106.5193 345.6562  1.00270078 52477
GOES 16                 
1 41866U 16071A   24184.23969623 -.00000246  00000+0  00000+0 0  9990
2 41866   0.0751 249.5556 0000101 206.0987 196.1904  1.00271462 27934
GOES 17                 
1 43226U 18022A   24184.52006742 -.00000088  00000+0  00000+0 0  9990
2 43226   0.0112 107.7859 0000895  46.9190 208.8353  1.00271382 23256
GOES 18                 
1 51850U 22021A   24184.52757794  .00000099  00000+0  00000+0 0  9997
2 51850   0.0386 165.9928 0000260 341.7596 186.2013  1.00270475    20
